ORBCOMM FM37            
1 33064U 08031E   25012.46872765  .00002681  00000+0  38994-3 0  9995
2 33064  48.4408   3.3924 0005621  58.6553  79.4609 14.78683506891318
ORBCOMM FM40            
1 33065U 08031F   25011.66526413  .00003796  00000+0  51620-3 0  9992
2 33065  48.4427 353.6988 0006981  67.8289 102.4345 14.80630343890956
VESSELSAT 1             
1 37840U 11058C   25011.21123597  .00000454  00000+0  10315-3 0  9991
2 37840  19.9635 323.7150 0013532 259.5884 100.2995 14.11292871684104
ORBCOMM FM109           
1 40086U 14040A   25012.48761400  .00001449  00000+0  35141-3 0  9991
2 40086  47.0047  31.3909 0002475 322.1012  37.9699 14.57669792558463
ORBCOMM FM107           
1 40087U 14040B   25011.76908431  .00001099  00000+0  27491-3 0  9999
2 40087  47.0064  35.7985 0002347 287.1580  72.9048 14.57738504558312
ORBCOMM FM106           
1 40088U 14040C   25012.29039507  .00001651  00000+0  31213-3 0  9999
2 40088  47.0580 227.8074 0016649  63.8892 296.3710 14.68690593560761
ORBCOMM FM111           
1 40089U 14040D   25012.53343522  .00004265  00000+0  51819-3 0  9990
2 40089  47.0023  97.3893 0030336 171.0566 189.0877 14.84750152567082
ORBCOMM FM104           
1 40090U 14040E   25011.86290585  .00001122  00000+0  28897-3 0  9996
2 40090  47.0059  67.1137 0017090 214.3060 145.6722 14.56192890557838
