<?xml version="1.0" encoding="UTF-8"?>
<ndm xmlns:xsi="http://www.w3.org/2001/XMLSchema-instance" xsi:noNamespaceSchemaLocation="https://sanaregistry.org/r/ndmxml_unqualified/ndmxml-2.0.0-master-2.0.xsd">
<omm id="CCSDS_OMM_VERS" version="2.0">
<header><CREATION_DATE/><ORIGINATOR/></header><body><segment><metadata><OBJECT_NAME>ORBCOMM FM37</OBJECT_NAME><OBJECT_ID>2008-031E</OBJECT_ID><CENTER_NAME>EARTH</CENTER_NAME><REF_FRAME>TEME</REF_FRAME><TIME_SYSTEM>UTC</TIME_SYSTEM><MEAN_ELEMENT_THEORY>SGP4</MEAN_ELEMENT_THEORY></metadata><data><meanElements><EPOCH>2025-01-12T11:14:58.068960</EPOCH><MEAN_MOTION>14.78683506</MEAN_MOTION><ECCENTRICITY>.0005621</ECCENTRICITY><INCLINATION>48.4408</INCLINATION><RA_OF_ASC_NODE>3.3924</RA_OF_ASC_NODE><ARG_OF_PERICENTER>58.6553</ARG_OF_PERICENTER><MEAN_ANOMALY>79.4609</MEAN_ANOMALY></meanElements><tleParameters><EPHEMERIS_TYPE>0</EPHEMERIS_TYPE><CLASSIFICATION_TYPE>U</CLASSIFICATION_TYPE><NORAD_CAT_ID>33064</NORAD_CAT_ID><ELEMENT_SET_NO>999</ELEMENT_SET_NO><REV_AT_EPOCH>89131</REV_AT_EPOCH><BSTAR>.38994E-3</BSTAR><MEAN_MOTION_DOT>.2681E-4</MEAN_MOTION_DOT><MEAN_MOTION_DDOT>0</MEAN_MOTION_DDOT></tleParameters></data></segment></body></omm>
<omm id="CCSDS_OMM_VERS" version="2.0">
<header><CREATION_DATE/><ORIGINATOR/></header><body><segment><metadata><OBJECT_NAME>ORBCOMM FM40</OBJECT_NAME><OBJECT_ID>2008-031F</OBJECT_ID><CENTER_NAME>EARTH</CENTER_NAME><REF_FRAME>TEME</REF_FRAME><TIME_SYSTEM>UTC</TIME_SYSTEM><MEAN_ELEMENT_THEORY>SGP4</MEAN_ELEMENT_THEORY></metadata><data><meanElements><EPOCH>2025-01-11T15:57:58.820832</EPOCH><MEAN_MOTION>14.80630343</MEAN_MOTION><ECCENTRICITY>.0006981</ECCENTRICITY><INCLINATION>48.4427</INCLINATION><RA_OF_ASC_NODE>353.6988</RA_OF_ASC_NODE><ARG_OF_PERICENTER>67.8289</ARG_OF_PERICENTER><MEAN_ANOMALY>102.4345</MEAN_ANOMALY></meanElements><tleParameters><EPHEMERIS_TYPE>0</EPHEMERIS_TYPE><CLASSIFICATION_TYPE>U</CLASSIFICATION_TYPE><NORAD_CAT_ID>33065</NORAD_CAT_ID><ELEMENT_SET_NO>999</ELEMENT_SET_NO><REV_AT_EPOCH>89095</REV_AT_EPOCH><BSTAR>.5162E-3</BSTAR><MEAN_MOTION_DOT>.3796E-4</MEAN_MOTION_DOT><MEAN_MOTION_DDOT>0</MEAN_MOTION_DDOT></tleParameters></data></segment></body></omm>
<omm id="CCSDS_OMM_VERS" version="2.0">
<header><CREATION_DATE/><ORIGINATOR/></header><body><segment><metadata><OBJECT_NAME>VESSELSAT 1</OBJECT_NAME><OBJECT_ID>2011-058C</OBJECT_ID><CENTER_NAME>EARTH</CENTER_NAME><REF_FRAME>TEME</REF_FRAME><TIME_SYSTEM>UTC</TIME_SYSTEM><MEAN_ELEMENT_THEORY>SGP4</MEAN_ELEMENT_THEORY></metadata><data><meanElements><EPOCH>2025-01-11T05:04:10.787808</EPOCH><MEAN_MOTION>14.11292871</MEAN_MOTION><ECCENTRICITY>.0013532</ECCENTRICITY><INCLINATION>19.9635</INCLINATION><RA_OF_ASC_NODE>323.7150</RA_OF_ASC_NODE><ARG_OF_PERICENTER>259.5884</ARG_OF_PERICENTER><MEAN_ANOMALY>100.2995</MEAN_ANOMALY></meanElements><tleParameters><EPHEMERIS_TYPE>0</EPHEMERIS_TYPE><CLASSIFICATION_TYPE>U</CLASSIFICATION_TYPE><NORAD_CAT_ID>37840</NORAD_CAT_ID><ELEMENT_SET_NO>999</ELEMENT_SET_NO><REV_AT_EPOCH>68410</REV_AT_EPOCH><BSTAR>.10315E-3</BSTAR><MEAN_MOTION_DOT>.454E-5</MEAN_MOTION_DOT><MEAN_MOTION_DDOT>0</MEAN_MOTION_DDOT></tleParameters></data></segment></body></omm>
<omm id="CCSDS_OMM_VERS" version="2.0">
<header><CREATION_DATE/><ORIGINATOR/></header><body><segment><metadata><OBJECT_NAME>ORBCOMM FM109</OBJECT_NAME><OBJECT_ID>2014-040A</OBJECT_ID><CENTER_NAME>EARTH</CENTER_NAME><REF_FRAME>TEME</REF_FRAME><TIME_SYSTEM>UTC</TIME_SYSTEM><MEAN_ELEMENT_THEORY>SGP4</MEAN_ELEMENT_THEORY></metadata><data><meanElements><EPOCH>2025-01-12T11:42:09.849600</EPOCH><MEAN_MOTION>14.57669792</MEAN_MOTION><ECCENTRICITY>.0002475</ECCENTRICITY><INCLINATION>47.0047</INCLINATION><RA_OF_ASC_NODE>31.3909</RA_OF_ASC_NODE><ARG_OF_PERICENTER>322.1012</ARG_OF_PERICENTER><MEAN_ANOMALY>37.9699</MEAN_ANOMALY></meanElements><tleParameters><EPHEMERIS_TYPE>0</EPHEMERIS_TYPE><CLASSIFICATION_TYPE>U</CLASSIFICATION_TYPE><NORAD_CAT_ID>40086</NORAD_CAT_ID><ELEMENT_SET_NO>999</ELEMENT_SET_NO><REV_AT_EPOCH>55846</REV_AT_EPOCH><BSTAR>.35141E-3</BSTAR><MEAN_MOTION_DOT>.1449E-4</MEAN_MOTION_DOT><MEAN_MOTION_DDOT>0</MEAN_MOTION_DDOT></tleParameters></data></segment></body></omm>
<omm id="CCSDS_OMM_VERS" version="2.0">
<header><CREATION_DATE/><ORIGINATOR/></header><body><segment><metadata><OBJECT_NAME>ORBCOMM FM107</OBJECT_NAME><OBJECT_ID>2014-040B</OBJECT_ID><CENTER_NAME>EARTH</CENTER_NAME><REF_FRAME>TEME</REF_FRAME><TIME_SYSTEM>UTC</TIME_SYSTEM><MEAN_ELEMENT_THEORY>SGP4</MEAN_ELEMENT_THEORY></metadata><data><meanElements><EPOCH>2025-01-11T18:27:28.884384</EPOCH><MEAN_MOTION>14.57738504</MEAN_MOTION><ECCENTRICITY>.0002347</ECCENTRICITY><INCLINATION>47.0064</INCLINATION><RA_OF_ASC_NODE>35.7985</RA_OF_ASC_NODE><ARG_OF_PERICENTER>287.1580</ARG_OF_PERICENTER><MEAN_ANOMALY>72.9048</MEAN_ANOMALY></meanElements><tleParameters><EPHEMERIS_TYPE>0</EPHEMERIS_TYPE><CLASSIFICATION_TYPE>U</CLASSIFICATION_TYPE><NORAD_CAT_ID>40087</NORAD_CAT_ID><ELEMENT_SET_NO>999</ELEMENT_SET_NO><REV_AT_EPOCH>55831</REV_AT_EPOCH><BSTAR>.27491E-3</BSTAR><MEAN_MOTION_DOT>.1099E-4</MEAN_MOTION_DOT><MEAN_MOTION_DDOT>0</MEAN_MOTION_DDOT></tleParameters></data></segment></body></omm>
<omm id="CCSDS_OMM_VERS" version="2.0">
<header><CREATION_DATE/><ORIGINATOR/></header><body><segment><metadata><OBJECT_NAME>ORBCOMM FM106</OBJECT_NAME><OBJECT_ID>2014-040C</OBJECT_ID><CENTER_NAME>EARTH</CENTER_NAME><REF_FRAME>TEME</REF_FRAME><TIME_SYSTEM>UTC</TIME_SYSTEM><MEAN_ELEMENT_THEORY>SGP4</MEAN_ELEMENT_THEORY></metadata><data><meanElements><EPOCH>2025-01-12T06:58:10.134048</EPOCH><MEAN_MOTION>14.68690593</MEAN_MOTION><ECCENTRICITY>.0016649</ECCENTRICITY><INCLINATION>47.0580</INCLINATION><RA_OF_ASC_NODE>227.8074</RA_OF_ASC_NODE><ARG_OF_PERICENTER>63.8892</ARG_OF_PERICENTER><MEAN_ANOMALY>296.3710</MEAN_ANOMALY></meanElements><tleParameters><EPHEMERIS_TYPE>0</EPHEMERIS_TYPE><CLASSIFICATION_TYPE>U</CLASSIFICATION_TYPE><NORAD_CAT_ID>40088</NORAD_CAT_ID><ELEMENT_SET_NO>999</ELEMENT_SET_NO><REV_AT_EPOCH>56076</REV_AT_EPOCH><BSTAR>.31213E-3</BSTAR><MEAN_MOTION_DOT>.1651E-4</MEAN_MOTION_DOT><MEAN_MOTION_DDOT>0</MEAN_MOTION_DDOT></tleParameters></data></segment></body></omm>
<omm id="CCSDS_OMM_VERS" version="2.0">
<header><CREATION_DATE/><ORIGINATOR/></header><body><segment><metadata><OBJECT_NAME>ORBCOMM FM111</OBJECT_NAME><OBJECT_ID>2014-040D</OBJECT_ID><CENTER_NAME>EARTH</CENTER_NAME><REF_FRAME>TEME</REF_FRAME><TIME_SYSTEM>UTC</TIME_SYSTEM><MEAN_ELEMENT_THEORY>SGP4</MEAN_ELEMENT_THEORY></metadata><data><meanElements><EPOCH>2025-01-12T12:48:08.803008</EPOCH><MEAN_MOTION>14.84750152</MEAN_MOTION><ECCENTRICITY>.0030336</ECCENTRICITY><INCLINATION>47.0023</INCLINATION><RA_OF_ASC_NODE>97.3893</RA_OF_ASC_NODE><ARG_OF_PERICENTER>171.0566</ARG_OF_PERICENTER><MEAN_ANOMALY>189.0877</MEAN_ANOMALY></meanElements><tleParameters><EPHEMERIS_TYPE>0</EPHEMERIS_TYPE><CLASSIFICATION_TYPE>U</CLASSIFICATION_TYPE><NORAD_CAT_ID>40089</NORAD_CAT_ID><ELEMENT_SET_NO>999</ELEMENT_SET_NO><REV_AT_EPOCH>56708</REV_AT_EPOCH><BSTAR>.51819E-3</BSTAR><MEAN_MOTION_DOT>.4265E-4</MEAN_MOTION_DOT><MEAN_MOTION_DDOT>0</MEAN_MOTION_DDOT></tleParameters></data></segment></body></omm>
<omm id="CCSDS_OMM_VERS" version="2.0">
<header><CREATION_DATE/><ORIGINATOR/></header><body><segment><metadata><OBJECT_NAME>ORBCOMM FM104</OBJECT_NAME><OBJECT_ID>2014-040E</OBJECT_ID><CENTER_NAME>EARTH</CENTER_NAME><REF_FRAME>TEME</REF_FRAME><TIME_SYSTEM>UTC</TIME_SYSTEM><MEAN_ELEMENT_THEORY>SGP4</MEAN_ELEMENT_THEORY></metadata><data><meanElements><EPOCH>2025-01-11T20:42:35.065440</EPOCH><MEAN_MOTION>14.56192890</MEAN_MOTION><ECCENTRICITY>.001709</ECCENTRICITY><INCLINATION>47.0059</INCLINATION><RA_OF_ASC_NODE>67.1137</RA_OF_ASC_NODE><ARG_OF_PERICENTER>214.3060</ARG_OF_PERICENTER><MEAN_ANOMALY>145.6722</MEAN_ANOMALY></meanElements><tleParameters><EPHEMERIS_TYPE>0</EPHEMERIS_TYPE><CLASSIFICATION_TYPE>U</CLASSIFICATION_TYPE><NORAD_CAT_ID>40090</NORAD_CAT_ID><ELEMENT_SET_NO>999</ELEMENT_SET_NO><REV_AT_EPOCH>55783</REV_AT_EPOCH><BSTAR>.28897E-3</BSTAR><MEAN_MOTION_DOT>.1122E-4</MEAN_MOTION_DOT><MEAN_MOTION_DDOT>0</MEAN_MOTION_DDOT></tleParameters></data></segment></body></omm>

</ndm>
